[{"OBJECT_NAME":"STARLINK-34219","OBJECT_ID":"2025-120Q","EPOCH":"2026-03-04T14:30:55.081152","MEAN_MOTION":15.30188752,"ECCENTRICITY":9.714e-5,"INCLINATION":53.1605,"RA_OF_ASC_NODE":140.5925,"ARG_OF_PERICENTER":68.8214,"MEAN_ANOMALY":291.2891,"EPHEMERIS_TYPE":0,"CLASSIFICATION_TYPE":"U","NORAD_CAT_ID":64270,"ELEMENT_SET_NO":999,"REV_AT_EPOCH":4313,"BSTAR":0.0008731111,"MEAN_MOTION_DOT":0.0002558,"MEAN_MOTION_DDOT":0},{"OBJECT_NAME":"STARLINK-34342","OBJECT_ID":"2025-120R","EPOCH":"2026-03-04T14:03:34.737408","MEAN_MOTION":15.30140867,"ECCENTRICITY":5.251e-5,"INCLINATION":53.1589,"RA_OF_ASC_NODE":140.4756,"ARG_OF_PERICENTER":125.2056,"MEAN_ANOMALY":234.8994,"EPHEMERIS_TYPE":0,"CLASSIFICATION_TYPE":"U","NORAD_CAT_ID":64271,"ELEMENT_SET_NO":999,"REV_AT_EPOCH":4308,"BSTAR":0.0007070167,"MEAN_MOTION_DOT":0.00020601,"MEAN_MOTION_DDOT":0},{"OBJECT_NAME":"STARLINK-34001","OBJECT_ID":"2025-120S","EPOCH":"2026-03-04T14:36:59.393664","MEAN_MOTION":15.30217374,"ECCENTRICITY":0.00011409,"INCLINATION":53.161,"RA_OF_ASC_NODE":140.6231,"ARG_OF_PERICENTER":68.5072,"MEAN_ANOMALY":291.605,"EPHEMERIS_TYPE":0,"CLASSIFICATION_TYPE":"U","NORAD_CAT_ID":64272,"ELEMENT_SET_NO":999,"REV_AT_EPOCH":4303,"BSTAR":0.00072698006,"MEAN_MOTION_DOT":0.00021245,"MEAN_MOTION_DDOT":0},{"OBJECT_NAME":"STARLINK-34334","OBJECT_ID":"2025-120T","EPOCH":"2026-03-04T11:37:50.558016","MEAN_MOTION":15.30201295,"ECCENTRICITY":0.00013858,"INCLINATION":53.1604,"RA_OF_ASC_NODE":140.5538,"ARG_OF_PERICENTER":54.234,"MEAN_ANOMALY":305.8789,"EPHEMERIS_TYPE":0,"CLASSIFICATION_TYPE":"U","NORAD_CAT_ID":64273,"ELEMENT_SET_NO":999,"REV_AT_EPOCH":4312,"BSTAR":0.00068793557,"MEAN_MOTION_DOT":0.00020071,"MEAN_MOTION_DDOT":0},{"OBJECT_NAME":"STARLINK-34272","OBJECT_ID":"2025-120U","EPOCH":"2026-03-04T14:27:52.851456","MEAN_MOTION":15.30211362,"ECCENTRICITY":0.00014356,"INCLINATION":53.1614,"RA_OF_ASC_NODE":140.5814,"ARG_OF_PERICENTER":61.3572,"MEAN_ANOMALY":298.7573,"EPHEMERIS_TYPE":0,"CLASSIFICATION_TYPE":"U","NORAD_CAT_ID":64274,"ELEMENT_SET_NO":999,"REV_AT_EPOCH":4303,"BSTAR":0.002006293,"MEAN_MOTION_DOT":0.0005956,"MEAN_MOTION_DDOT":0},{"OBJECT_NAME":"STARLINK-34293","OBJECT_ID":"2025-120V","EPOCH":"2026-03-04T14:32:26.306592","MEAN_MOTION":15.30197796,"ECCENTRICITY":0.00012023,"INCLINATION":53.1612,"RA_OF_ASC_NODE":140.6001,"ARG_OF_PERICENTER":72.0599,"MEAN_ANOMALY":288.0533,"EPHEMERIS_TYPE":0,"CLASSIFICATION_TYPE":"U","NORAD_CAT_ID":64275,"ELEMENT_SET_NO":999,"REV_AT_EPOCH":4307,"BSTAR":0.0013991356,"MEAN_MOTION_DOT":0.00041307,"MEAN_MOTION_DDOT":0},{"OBJECT_NAME":"STARLINK-34350","OBJECT_ID":"2025-120W","EPOCH":"2026-03-04T15:05:42.257184","MEAN_MOTION":15.30183706,"ECCENTRICITY":0.00010417,"INCLINATION":53.1579,"RA_OF_ASC_NODE":140.0318,"ARG_OF_PERICENTER":75.9907,"MEAN_ANOMALY":284.1209,"EPHEMERIS_TYPE":0,"CLASSIFICATION_TYPE":"U","NORAD_CAT_ID":64276,"ELEMENT_SET_NO":999,"REV_AT_EPOCH":4314,"BSTAR":0.00099830458,"MEAN_MOTION_DOT":0.00029309,"MEAN_MOTION_DDOT":0},{"OBJECT_NAME":"STARLINK-34264","OBJECT_ID":"2025-120X","EPOCH":"2026-03-04T14:09:38.474496","MEAN_MOTION":15.30188105,"ECCENTRICITY":9.211e-5,"INCLINATION":53.1597,"RA_OF_ASC_NODE":140.4978,"ARG_OF_PERICENTER":97.2544,"MEAN_ANOMALY":262.8561,"EPHEMERIS_TYPE":0,"CLASSIFICATION_TYPE":"U","NORAD_CAT_ID":64277,"ELEMENT_SET_NO":999,"REV_AT_EPOCH":4307,"BSTAR":0.0010049229,"MEAN_MOTION_DOT":0.00029511,"MEAN_MOTION_DDOT":0},{"OBJECT_NAME":"STARLINK-34353","OBJECT_ID":"2025-120Y","EPOCH":"2026-03-04T11:15:12.742272","MEAN_MOTION":15.30198099,"ECCENTRICITY":0.00011907,"INCLINATION":53.1605,"RA_OF_ASC_NODE":141.1646,"ARG_OF_PERICENTER":124.9349,"MEAN_ANOMALY":235.1764,"EPHEMERIS_TYPE":0,"CLASSIFICATION_TYPE":"U","NORAD_CAT_ID":64278,"ELEMENT_SET_NO":999,"REV_AT_EPOCH":4311,"BSTAR":0.00098555255,"MEAN_MOTION_DOT":0.00028942,"MEAN_MOTION_DDOT":0},{"OBJECT_NAME":"STARLINK-34377","OBJECT_ID":"2025-120Z","EPOCH":"2026-03-04T15:13:18.097536","MEAN_MOTION":15.30209152,"ECCENTRICITY":0.00011059,"INCLINATION":53.1573,"RA_OF_ASC_NODE":140.0661,"ARG_OF_PERICENTER":49.3657,"MEAN_ANOMALY":310.7439,"EPHEMERIS_TYPE":0,"CLASSIFICATION_TYPE":"U","NORAD_CAT_ID":64279,"ELEMENT_SET_NO":999,"REV_AT_EPOCH":4314,"BSTAR":0.0017421376,"MEAN_MOTION_DOT":0.00051612,"MEAN_MOTION_DDOT":0},{"OBJECT_NAME":"STARLINK-34359","OBJECT_ID":"2025-120AA","EPOCH":"2026-03-04T14:17:14.505792","MEAN_MOTION":15.30185989,"ECCENTRICITY":0.00012565,"INCLINATION":53.1607,"RA_OF_ASC_NODE":140.5318,"ARG_OF_PERICENTER":42.4957,"MEAN_ANOMALY":317.614,"EPHEMERIS_TYPE":0,"CLASSIFICATION_TYPE":"U","NORAD_CAT_ID":64280,"ELEMENT_SET_NO":999,"REV_AT_EPOCH":4313,"BSTAR":0.00096673605,"MEAN_MOTION_DOT":0.0002837,"MEAN_MOTION_DDOT":0},{"OBJECT_NAME":"STARLINK-34366","OBJECT_ID":"2025-120AB","EPOCH":"2026-03-04T10:46:20.082720","MEAN_MOTION":15.30188897,"ECCENTRICITY":0.00010545,"INCLINATION":53.1581,"RA_OF_ASC_NODE":141.0417,"ARG_OF_PERICENTER":85.5416,"MEAN_ANOMALY":274.5705,"EPHEMERIS_TYPE":0,"CLASSIFICATION_TYPE":"U","NORAD_CAT_ID":64281,"ELEMENT_SET_NO":999,"REV_AT_EPOCH":4306,"BSTAR":0.00022724775,"MEAN_MOTION_DOT":6.375e-5,"MEAN_MOTION_DDOT":0},{"OBJECT_NAME":"STARLINK-34381","OBJECT_ID":"2025-120AC","EPOCH":"2026-03-04T14:06:36.133344","MEAN_MOTION":15.30192209,"ECCENTRICITY":0.00010272,"INCLINATION":53.1594,"RA_OF_ASC_NODE":140.4827,"ARG_OF_PERICENTER":106.1316,"MEAN_ANOMALY":253.9798,"EPHEMERIS_TYPE":0,"CLASSIFICATION_TYPE":"U","NORAD_CAT_ID":64282,"ELEMENT_SET_NO":999,"REV_AT_EPOCH":4311,"BSTAR":0.0010590731,"MEAN_MOTION_DOT":0.00031131,"MEAN_MOTION_DDOT":0},{"OBJECT_NAME":"STARLINK-34448","OBJECT_ID":"2025-123A","EPOCH":"2026-03-04T12:26:13.115040","MEAN_MOTION":14.98319893,"ECCENTRICITY":0.00015354,"INCLINATION":70.0117,"RA_OF_ASC_NODE":207.5226,"ARG_OF_PERICENTER":233.6413,"MEAN_ANOMALY":126.4605,"EPHEMERIS_TYPE":0,"CLASSIFICATION_TYPE":"U","NORAD_CAT_ID":64291,"ELEMENT_SET_NO":999,"REV_AT_EPOCH":4206,"BSTAR":-0.00024767649,"MEAN_MOTION_DOT":-3.046e-5,"MEAN_MOTION_DDOT":0},{"OBJECT_NAME":"STARLINK-34362","OBJECT_ID":"2025-123B","EPOCH":"2026-03-04T12:44:00.553344","MEAN_MOTION":14.98341102,"ECCENTRICITY":0.00032245,"INCLINATION":70.0016,"RA_OF_ASC_NODE":207.55,"ARG_OF_PERICENTER":268.4836,"MEAN_ANOMALY":91.5954,"EPHEMERIS_TYPE":0,"CLASSIFICATION_TYPE":"U","NORAD_CAT_ID":64292,"ELEMENT_SET_NO":999,"REV_AT_EPOCH":4206,"BSTAR":0.00064749073,"MEAN_MOTION_DOT":7.643e-5,"MEAN_MOTION_DDOT":0},{"OBJECT_NAME":"STARLINK-34428","OBJECT_ID":"2025-123C","EPOCH":"2026-03-04T11:55:55.176096","MEAN_MOTION":14.98343904,"ECCENTRICITY":0.0002969,"INCLINATION":70.0025,"RA_OF_ASC_NODE":207.4296,"ARG_OF_PERICENTER":270.137,"MEAN_ANOMALY":89.9448,"EPHEMERIS_TYPE":0,"CLASSIFICATION_TYPE":"U","NORAD_CAT_ID":64293,"ELEMENT_SET_NO":999,"REV_AT_EPOCH":4206,"BSTAR":0.00051451475,"MEAN_MOTION_DOT":6.054e-5,"MEAN_MOTION_DDOT":0},{"OBJECT_NAME":"STARLINK-34388","OBJECT_ID":"2025-123D","EPOCH":"2026-03-04T11:20:07.983168","MEAN_MOTION":14.98348473,"ECCENTRICITY":0.0003061,"INCLINATION":70.0025,"RA_OF_ASC_NODE":207.7414,"ARG_OF_PERICENTER":265.5062,"MEAN_ANOMALY":94.5747,"EPHEMERIS_TYPE":0,"CLASSIFICATION_TYPE":"U","NORAD_CAT_ID":64294,"ELEMENT_SET_NO":999,"REV_AT_EPOCH":4205,"BSTAR":0.00039285351,"MEAN_MOTION_DOT":4.6e-5,"MEAN_MOTION_DDOT":0},{"OBJECT_NAME":"STARLINK-34424","OBJECT_ID":"2025-123E","EPOCH":"2026-03-04T11:31:56.418240","MEAN_MOTION":14.98343834,"ECCENTRICITY":0.00039866,"INCLINATION":70.0015,"RA_OF_ASC_NODE":207.7653,"ARG_OF_PERICENTER":279.7412,"MEAN_ANOMALY":80.3297,"EPHEMERIS_TYPE":0,"CLASSIFICATION_TYPE":"U","NORAD_CAT_ID":64295,"ELEMENT_SET_NO":999,"REV_AT_EPOCH":4205,"BSTAR":0.00096306749,"MEAN_MOTION_DOT":0.00011422,"MEAN_MOTION_DDOT":0},{"OBJECT_NAME":"STARLINK-34443","OBJECT_ID":"2025-123F","EPOCH":"2026-03-04T12:19:57.885024","MEAN_MOTION":14.98346864,"ECCENTRICITY":0.00032389,"INCLINATION":70.0039,"RA_OF_ASC_NODE":207.4906,"ARG_OF_PERICENTER":272.1709,"MEAN_ANOMALY":87.908,"EPHEMERIS_TYPE":0,"CLASSIFICATION_TYPE":"U","NORAD_CAT_ID":64296,"ELEMENT_SET_NO":999,"REV_AT_EPOCH":4206,"BSTAR":0.00084703892,"MEAN_MOTION_DOT":0.00010033,"MEAN_MOTION_DDOT":0},{"OBJECT_NAME":"STARLINK-34369","OBJECT_ID":"2025-123G","EPOCH":"2026-03-04T12:38:14.186112","MEAN_MOTION":14.98339587,"ECCENTRICITY":0.00033163,"INCLINATION":70.0029,"RA_OF_ASC_NODE":207.5293,"ARG_OF_PERICENTER":262.2107,"MEAN_ANOMALY":97.8676,"EPHEMERIS_TYPE":0,"CLASSIFICATION_TYPE":"U","NORAD_CAT_ID":64297,"ELEMENT_SET_NO":999,"REV_AT_EPOCH":4084,"BSTAR":0.00062156734,"MEAN_MOTION_DOT":7.333e-5,"MEAN_MOTION_DDOT":0},{"OBJECT_NAME":"STARLINK-34391","OBJECT_ID":"2025-123H","EPOCH":"2026-03-04T11:37:53.100768","MEAN_MOTION":14.98343209,"ECCENTRICITY":0.0002572,"INCLINATION":70.0031,"RA_OF_ASC_NODE":207.3852,"ARG_OF_PERICENTER":268.8442,"MEAN_ANOMALY":91.2423,"EPHEMERIS_TYPE":0,"CLASSIFICATION_TYPE":"U","NORAD_CAT_ID":64298,"ELEMENT_SET_NO":999,"REV_AT_EPOCH":4084,"BSTAR":0.00065356153,"MEAN_MOTION_DOT":7.716e-5,"MEAN_MOTION_DDOT":0},{"OBJECT_NAME":"STARLINK-34378","OBJECT_ID":"2025-123J","EPOCH":"2026-03-04T12:20:13.028352","MEAN_MOTION":14.98256,"ECCENTRICITY":0.00078181,"INCLINATION":70.0028,"RA_OF_ASC_NODE":207.4857,"ARG_OF_PERICENTER":333.7002,"MEAN_ANOMALY":26.3759,"EPHEMERIS_TYPE":0,"CLASSIFICATION_TYPE":"U","NORAD_CAT_ID":64299,"ELEMENT_SET_NO":999,"REV_AT_EPOCH":4084,"BSTAR":-0.015287939,"MEAN_MOTION_DOT":-0.00177747,"MEAN_MOTION_DDOT":0},{"OBJECT_NAME":"STARLINK-34376","OBJECT_ID":"2025-123K","EPOCH":"2026-03-04T11:19:53.805792","MEAN_MOTION":14.98343794,"ECCENTRICITY":0.00033125,"INCLINATION":70.002,"RA_OF_ASC_NODE":207.7469,"ARG_OF_PERICENTER":274.2052,"MEAN_ANOMALY":85.8729,"EPHEMERIS_TYPE":0,"CLASSIFICATION_TYPE":"U","NORAD_CAT_ID":64300,"ELEMENT_SET_NO":999,"REV_AT_EPOCH":4083,"BSTAR":0.00083972587,"MEAN_MOTION_DOT":9.944e-5,"MEAN_MOTION_DDOT":0}]
